{
  "norad_id": 60111,
  "name": "STARLINK-32015",
  "history": [
    {
      "epoch": "2026-03-28T21:48:03.974976Z",
      "apogee_km": 475.9998526082227,
      "perigee_km": 474.4660684110595,
      "latitude_deg": 2.3525524627102082e-05,
      "longitude_deg": 154.17857966473892,
      "height_km": 476.1789926414498,
      "semi_major_axis_km": 6853.369960509641,
      "eccentricity": 0.0001119,
      "inclination_deg": 53.1599,
      "raan_deg": 307.5172,
      "arg_perigee_deg": 93.571,
      "mean_anomaly_deg": 266.5419,
      "mean_motion_rev_day": 15.30194008
    },
    {
      "epoch": "2026-03-30T14:33:27.253152Z",
      "apogee_km": 475.9922207152358,
      "perigee_km": 474.47570678837747,
      "latitude_deg": -4.075737987786787e-05,
      "longitude_deg": -106.73096804335299,
      "height_km": 476.12529608516553,
      "semi_major_axis_km": 6853.370963751807,
      "eccentricity": 0.00011064,
      "inclination_deg": 53.1609,
      "raan_deg": 299.6285,
      "arg_perigee_deg": 89.4661,
      "mean_anomaly_deg": 270.6466,
      "mean_motion_rev_day": 15.30193672
    },
    {
      "epoch": "2026-03-30T22:23:42.809568Z",
      "apogee_km": 475.9991095389614,
      "perigee_km": 474.4409302869144,
      "latitude_deg": 6.239378813764846e-06,
      "longitude_deg": 133.86576791217183,
      "height_km": 476.1472654065818,
      "semi_major_axis_km": 6853.357019912938,
      "eccentricity": 0.00011368,
      "inclination_deg": 53.1613,
      "raan_deg": 298.1119,
      "arg_perigee_deg": 92.1222,
      "mean_anomaly_deg": 267.9909,
      "mean_motion_rev_day": 15.30198342
    },
    {
      "epoch": "2026-03-31T18:46:24.880224Z",
      "apogee_km": 476.0143535864472,
      "perigee_km": 474.4668609227292,
      "latitude_deg": -2.8612076741585297e-06,
      "longitude_deg": -176.59054131018758,
      "height_km": 476.1655587095026,
      "semi_major_axis_km": 6853.377607254588,
      "eccentricity": 0.0001129,
      "inclination_deg": 53.1611,
      "raan_deg": 294.1678,
      "arg_perigee_deg": 91.9678,
      "mean_anomaly_deg": 268.1452,
      "mean_motion_rev_day": 15.30191447
    },
    {
      "epoch": "2026-04-01T19:51:15.592320Z",
      "apogee_km": 475.97335902249597,
      "perigee_km": 474.4779552907048,
      "latitude_deg": -6.0362580345065626e-05,
      "longitude_deg": 161.31358683620473,
      "height_km": 476.1211920003818,
      "semi_major_axis_km": 6853.3626571566,
      "eccentricity": 0.0001091,
      "inclination_deg": 53.161,
      "raan_deg": 289.3133,
      "arg_perigee_deg": 89.7779,
      "mean_anomaly_deg": 270.3346,
      "mean_motion_rev_day": 15.30196454
    },
    {
      "epoch": "2026-04-02T19:22:03.514368Z",
      "apogee_km": 476.0488086666346,
      "perigee_km": 474.4163360345001,
      "latitude_deg": 3.40965157249626e-05,
      "longitude_deg": 163.0965253885921,
      "height_km": 476.05367996948996,
      "semi_major_axis_km": 6853.369572350567,
      "eccentricity": 0.0001191,
      "inclination_deg": 53.1609,
      "raan_deg": 284.7615,
      "arg_perigee_deg": 84.5747,
      "mean_anomaly_deg": 275.539,
      "mean_motion_rev_day": 15.30194138
    },
    {
      "epoch": "2026-04-02T22:30:09.561024Z",
      "apogee_km": 476.02945098584314,
      "perigee_km": 474.4041096033079,
      "latitude_deg": 6.558712461475185e-06,
      "longitude_deg": 115.33576015636612,
      "height_km": 476.0342374452211,
      "semi_major_axis_km": 6853.353780294575,
      "eccentricity": 0.00011858,
      "inclination_deg": 53.1608,
      "raan_deg": 284.1547,
      "arg_perigee_deg": 84.292,
      "mean_anomaly_deg": 275.8216,
      "mean_motion_rev_day": 15.30199427
    },
    {
      "epoch": "2026-04-03T18:52:52.411872Z",
      "apogee_km": 475.98302618703474,
      "perigee_km": 474.5547763972054,
      "latitude_deg": -7.928311534486748e-06,
      "longitude_deg": 164.87528602933017,
      "height_km": 476.0753129792335,
      "semi_major_axis_km": 6853.40590129212,
      "eccentricity": 0.0001042,
      "inclination_deg": 53.16,
      "raan_deg": 280.2097,
      "arg_perigee_deg": 82.5997,
      "mean_anomaly_deg": 277.5122,
      "mean_motion_rev_day": 15.30181971
    },
    {
      "epoch": "2026-04-04T18:23:39.806880Z",
      "apogee_km": 475.9060182155308,
      "perigee_km": 474.5572752658518,
      "latitude_deg": 9.899115752193464e-06,
      "longitude_deg": 166.66396798174054,
      "height_km": 476.01777195534004,
      "semi_major_axis_km": 6853.3686467406915,
      "eccentricity": 9.84e-05,
      "inclination_deg": 53.1606,
      "raan_deg": 275.6615,
      "arg_perigee_deg": 80.404,
      "mean_anomaly_deg": 279.7072,
      "mean_motion_rev_day": 15.30194448
    },
    {
      "epoch": "2026-04-05T11:38:14.890848Z",
      "apogee_km": 475.82494581658375,
      "perigee_km": 474.7164756534494,
      "latitude_deg": 1.2376299676937255e-05,
      "longitude_deg": -96.02856254971586,
      "height_km": 476.27091009580727,
      "semi_major_axis_km": 6853.407710735017,
      "eccentricity": 8.087e-05,
      "inclination_deg": 53.1603,
      "raan_deg": 272.3233,
      "arg_perigee_deg": 100.549,
      "mean_anomaly_deg": 259.5602,
      "mean_motion_rev_day": 15.30181365
    },
    {
      "epoch": "2026-04-05T17:54:27.319392Z",
      "apogee_km": 475.8006575114532,
      "perigee_km": 474.7012370169541,
      "latitude_deg": 5.495557426772775e-05,
      "longitude_deg": 168.44907846654183,
      "height_km": 476.1959154135055,
      "semi_major_axis_km": 6853.387947264204,
      "eccentricity": 8.021e-05,
      "inclination_deg": 53.1602,
      "raan_deg": 271.1102,
      "arg_perigee_deg": 94.8268,
      "mean_anomaly_deg": 265.2825,
      "mean_motion_rev_day": 15.30187984
    },
    {
      "epoch": "2026-04-07T15:22:00.435648Z",
      "apogee_km": 475.76262168635367,
      "perigee_km": 474.7257051163306,
      "latitude_deg": 7.801765582237035e-05,
      "longitude_deg": -164.10493652707984,
      "height_km": 476.19197439568194,
      "semi_major_axis_km": 6853.381163401342,
      "eccentricity": 7.565e-05,
      "inclination_deg": 53.1602,
      "raan_deg": 262.3111,
      "arg_perigee_deg": 95.4276,
      "mean_anomaly_deg": 264.6812,
      "mean_motion_rev_day": 15.30190256
    },
    {
      "epoch": "2026-04-07T20:04:09.820128Z",
      "apogee_km": 475.8151474118522,
      "perigee_km": 474.65829792746536,
      "latitude_deg": -6.807346752088721e-05,
      "longitude_deg": 124.25252285737403,
      "height_km": 476.24100156016164,
      "semi_major_axis_km": 6853.3737226696585,
      "eccentricity": 8.44e-05,
      "inclination_deg": 53.1607,
      "raan_deg": 261.4009,
      "arg_perigee_deg": 100.5125,
      "mean_anomaly_deg": 259.597,
      "mean_motion_rev_day": 15.30192748
    },
    {
      "epoch": "2026-04-08T10:10:38.799552Z",
      "apogee_km": 475.833723145005,
      "perigee_km": 474.673307062988,
      "latitude_deg": 1.1366491908929288e-05,
      "longitude_deg": -90.67796436689082,
      "height_km": 476.26709264187974,
      "semi_major_axis_km": 6853.390515103996,
      "eccentricity": 8.466e-05,
      "inclination_deg": 53.1614,
      "raan_deg": 258.6705,
      "arg_perigee_deg": 101.4089,
      "mean_anomaly_deg": 258.7007,
      "mean_motion_rev_day": 15.30187124
    },
    {
      "epoch": "2026-04-09T03:25:13.817856Z",
      "apogee_km": 475.8468975186779,
      "perigee_km": 474.641524831256,
      "latitude_deg": -2.98447832260646e-07,
      "longitude_deg": 6.631067812075266,
      "height_km": 476.24757402307665,
      "semi_major_axis_km": 6853.381211174967,
      "eccentricity": 8.794e-05,
      "inclination_deg": 53.1614,
      "raan_deg": 255.3336,
      "arg_perigee_deg": 99.9947,
      "mean_anomaly_deg": 260.1153,
      "mean_motion_rev_day": 15.3019024
    },
    {
      "epoch": "2026-04-11T16:33:18.783936Z",
      "apogee_km": 475.98831079574757,
      "perigee_km": 474.4874217000388,
      "latitude_deg": 6.538998512386925e-05,
      "longitude_deg": 155.26900535688418,
      "height_km": 476.12319372450344,
      "semi_major_axis_km": 6853.374866247893,
      "eccentricity": 0.0001095,
      "inclination_deg": 53.1612,
      "raan_deg": 243.5029,
      "arg_perigee_deg": 88.9996,
      "mean_anomaly_deg": 271.1131,
      "mean_motion_rev_day": 15.30192365
    },
    {
      "epoch": "2026-04-13T06:10:34.876704Z",
      "apogee_km": 475.87580902198533,
      "perigee_km": 474.55338629770085,
      "latitude_deg": -2.1836089640402156e-05,
      "longitude_deg": -57.87485885975959,
      "height_km": 476.10369078702587,
      "semi_major_axis_km": 6853.351597659843,
      "eccentricity": 9.648e-05,
      "inclination_deg": 53.1605,
      "raan_deg": 236.2212,
      "arg_perigee_deg": 89.181,
      "mean_anomaly_deg": 270.9301,
      "mean_motion_rev_day": 15.30200158
    }
  ]
}